{"type":"FeatureCollection","features":[{"type":"Feature","geometry":{"type":"Polygon","coordinates":[[[92.8963,24.3907],[92.7618,24.5131],[92.5324,24.1776],[92.4223,24.2505],[92.2954,24.245],[92.2648,23.7267],[92.4024,23.2662],[92.5094,22.741],[92.6058,22.1238],[92.855,22.0633],[93.1609,22.1801],[93.0967,22.7864],[93.1227,23.0063],[93.1961,23.0558],[93.3581,23.3308],[93.3903,23.4971],[93.2526,24.0209],[93.2068,24.047],[93.0095,24.4127],[92.8963,24.3907]]]},"properties":{"code":"MZ","name":"Mizoram","st_nm_source":"Mizoram"}},{"type":"Feature","geometry":{"type":"Polygon","coordinates":[[[79.2835,13.1232],[79.2285,13.1576],[78.6214,12.9913],[78.603,12.8442],[78.4119,12.627],[78.2314,12.7603],[77.8659,12.8703],[77.8308,12.8662],[77.6014,12.6682],[77.4714,12.2434],[77.7467,12.1554],[77.6763,11.9519],[76.9087,11.7952],[76.8475,11.5945],[76.4178,11.6715],[76.2343,11.5271],[76.4423,11.2013],[76.7068,11.2398],[76.6564,10.9388],[76.9071,10.782],[76.8337,10.3394],[76.8919,10.2596],[77.0509,10.2624],[77.0906,10.3146],[77.2879,10.2321],[77.268,10.1221],[77.1671,9.6121],[77.4026,9.5255],[77.3399,9.4196],[77.2818,9.2987],[77.2038,9.0705],[77.2558,8.8794],[77.1992,8.7708],[77.2696,8.5783],[77.0983,8.2924],[77.5892,8.1398],[77.9699,8.335],[78.1427,8.5013],[78.1718,8.8835],[78.3843,9.0938],[79.0648,9.2987],[78.8997,9.4691],[79.1168,9.8499],[79.2269,10.1373],[79.4716,10.316],[79.8722,10.36],[79.8493,10.8274],[79.7239,10.9291],[79.7484,10.9965],[79.8508,10.9855],[79.8126,11.424],[79.808,11.8447],[79.6857,11.8805],[79.8401,11.9561],[80.0083,12.2544],[80.2499,12.8579],[80.3004,13.1425],[80.2683,13.5645],[80.0374,13.5384],[79.9456,13.3638],[79.2835,13.1232]]]},"properties":{"code":"TN","name":"Tamil Nadu","st_nm_source":"Tamil Nadu"}},{"type":"Feature","geometry":{"type":"Polygon","coordinates":[[[76.7818,21.5587],[77.0616,21.7127],[77.4791,21.7704],[77.5754,21.5271],[78.0296,21.4213],[78.3431,21.589],[78.4333,21.4969],[78.8997,21.501],[79.2346,21.7182],[79.5098,21.5958],[79.5389,21.5409],[79.9181,21.5244],[80.2683,21.6178],[80.6613,21.3333],[80.8463,21.8351],[81.0451,22.2406],[81.1935,22.4908],[81.4748,22.4894],[81.7287,22.6695],[81.7317,22.6764],[82.1232,23.104],[81.9856,23.4146],[81.6033,23.8848],[82.2088,23.8532],[82.4979,23.7845],[82.6936,23.9192],[82.8129,23.9618],[82.7976,24.5763],[82.5239,24.6767],[82.2975,24.6066],[82.0941,24.8169],[81.5406,25.1881],[81.1201,24.9035],[80.7148,25.0657],[80.4778,24.9764],[80.2637,25.0245],[80.1047,25.3503],[79.6734,25.1207],[79.2804,25.3242],[79.3233,25.1496],[78.8798,25.1578],[78.5587,25.2128],[78.6397,25.0712],[78.9853,24.4416],[78.9914,24.4168],[78.8064,24.179],[78.2681,24.4498],[78.1901,24.8416],[78.3736,25.0987],[78.447,25.1221],[78.3905,25.206],[78.4516,25.5716],[78.6581,25.5593],[78.8859,25.9126],[78.9379,25.9524],[79.1352,26.4405],[78.7804,26.769],[78.5449,26.7636],[78.2222,26.8323],[77.3751,26.3649],[77.1197,26.2136],[76.8521,26.0322],[76.5463,25.8383],[76.5937,25.408],[77.083,25.3366],[77.3124,25.0809],[76.8766,25.041],[77.0692,24.5571],[76.8444,24.4361],[76.8811,24.1309],[76.2129,24.2093],[75.6899,23.7473],[75.4621,23.9178],[75.8367,24.0567],[75.7281,24.3962],[75.9208,24.5433],[75.7847,24.7619],[75.5492,24.7028],[75.352,25.019],[75.1914,25.0369],[74.9926,24.6932],[74.6975,24.4828],[74.9085,24.212],[74.9406,23.7652],[74.7724,23.5425],[74.7342,23.2208],[74.3198,23.06],[74.3794,22.6352],[74.0583,22.5499],[74.1898,22.3203],[74.147,21.9505],[74.4329,22.0303],[74.5048,21.7265],[74.7755,21.6151],[75.2113,21.4116],[75.6089,21.3896],[75.9866,21.369],[76.3826,21.0762],[76.6625,21.281],[76.7818,21.5587]]]},"properties":{"code":"MP","name":"Madhya Pradesh","st_nm_source":"Madhya Pradesh"}},{"type":"Feature","geometry":{"type":"Polygon","coordinates":[[[74.147,21.9505],[73.939,21.8735],[73.9818,21.5216],[73.8075,21.0088],[73.8488,20.9992],[73.8488,20.9978],[73.8885,20.9332],[73.942,20.8397],[73.7448,20.5648],[73.4741,20.7201],[73.4068,20.6239],[73.416,20.2046],[73.2493,20.1221],[73.2111,20.1207],[72.9618,20.2087],[72.7753,20.1317],[72.6545,19.8362],[72.7982,19.3041],[72.7845,19.2643],[72.8364,18.8642],[73.0444,17.9816],[73.2891,17.1155],[73.3472,16.5299],[73.5108,15.9374],[73.6851,15.7284],[74.1179,15.6514],[74.2097,15.7806],[74.4803,16.2494],[74.3152,16.5546],[74.6959,16.7155],[75.0889,16.9519],[75.3413,16.9561],[75.6654,16.9794],[75.6043,17.3052],[76.0753,17.3369],[76.3826,17.3149],[76.4285,17.6434],[76.6854,17.6819],[76.7405,17.8991],[76.9194,17.9156],[77.265,18.4229],[77.5509,18.2923],[77.739,18.5563],[77.9485,18.8436],[77.8629,19.3041],[78.1932,19.3165],[78.3064,19.9118],[78.8416,19.7619],[78.9364,19.5502],[79.4716,19.5007],[79.8065,19.5791],[79.9288,19.1584],[79.9135,18.8257],[80.2759,18.7199],[80.4824,19.3371],[80.8524,19.3646],[80.672,19.7028],[80.5451,20.1001],[80.5619,20.8232],[80.464,21.1752],[80.6613,21.3333],[80.2683,21.6178],[79.9181,21.5244],[79.5389,21.5409],[79.5098,21.5958],[79.2346,21.7182],[78.8997,21.501],[78.4333,21.4969],[78.3431,21.589],[78.0296,21.4213],[77.5754,21.5271],[77.4791,21.7704],[77.0616,21.7127],[76.7818,21.5587],[76.6625,21.281],[76.3826,21.0762],[75.9866,21.369],[75.6089,21.3896],[75.2113,21.4116],[74.7755,21.6151],[74.5048,21.7265],[74.4329,22.0303],[74.147,21.9505]]]},"properties":{"code":"MH","name":"Maharashtra","st_nm_source":"Maharashtra"}},{"type":"Feature","geometry":{"type":"Polygon","coordinates":[[[80.2759,18.7199],[80.3723,18.6113],[80.7056,18.4394],[80.7561,18.17],[80.9794,18.1658],[81.0849,17.7974],[81.3968,17.818],[81.5299,18.2401],[81.8999,18.6607],[82.0911,18.7377],[82.2058,19.1213],[82.0284,19.5076],[82.0651,19.7908],[81.8755,20.052],[82.0177,20.0493],[82.5942,19.7757],[82.7181,19.9888],[82.3985,20.0561],[82.4382,20.4342],[82.3388,20.8741],[82.6385,21.0886],[83.1921,21.1394],[83.2686,21.3773],[83.4872,21.644],[83.5912,21.8254],[83.5377,22.0454],[83.8023,22.2942],[84.0118,22.5279],[84.2931,22.7726],[84.0377,23.1713],[84.0744,23.3335],[84.0163,23.6346],[83.3297,24.102],[83.2074,23.9219],[82.8129,23.9618],[82.6936,23.9192],[82.4979,23.7845],[82.2088,23.8532],[81.6033,23.8848],[81.9856,23.4146],[82.1232,23.104],[81.7317,22.6764],[81.7287,22.6695],[81.4748,22.4894],[81.1935,22.4908],[81.0451,22.2406],[80.8463,21.8351],[80.6613,21.3333],[80.464,21.1752],[80.5619,20.8232],[80.5451,20.1001],[80.672,19.7028],[80.8524,19.3646],[80.4824,19.3371],[80.2759,18.7199]]]},"properties":{"code":"CT","name":"Chhattisgarh","st_nm_source":"Chhattisgarh"}},{"type":"Feature","geometry":{"type":"Polygon","coordinates":[[[72.7753,20.1317],[72.9618,20.2087],[73.0429,20.3256],[73.2111,20.1207],[73.2493,20.1221],[73.416,20.2046],[73.4068,20.6239],[73.4741,20.7201],[73.7448,20.5648],[73.942,20.8397],[73.8885,20.9332],[73.8488,20.9978],[73.8488,20.9992],[73.8075,21.0088],[73.9818,21.5216],[73.939,21.8735],[74.147,21.9505],[74.1898,22.3203],[74.0583,22.5499],[74.3794,22.6352],[74.3198,23.06],[73.9818,23.3377],[73.9589,23.3803],[73.627,23.449],[73.3686,23.8147],[73.3778,23.9041],[73.0674,24.1941],[73.0016,24.4801],[72.9588,24.3605],[72.3349,24.6327],[72.0581,24.7124],[71.2874,24.6162],[71.188,24.6506],[71.1115,24.6753],[70.8057,24.2203],[70.5732,24.4223],[69.7322,24.1708],[68.7642,24.2959],[68.7535,23.9714],[68.3391,23.9659],[68.3101,23.5782],[68.6327,23.1699],[69.1312,22.8744],[69.6481,22.796],[70.0809,22.9197],[70.3118,23.2153],[70.6895,23.1177],[70.4968,22.9335],[70.1252,22.5527],[69.7536,22.418],[68.9661,22.2337],[69.3958,21.8887],[69.9815,21.2274],[70.2399,20.9923],[70.9204,20.7421],[70.9999,20.7421],[71.2063,20.7957],[71.6773,20.9965],[72.1131,21.1985],[72.3089,21.6247],[72.2447,21.9945],[72.3762,22.3148],[72.9465,22.2928],[72.867,22.2145],[72.5673,22.1815],[72.5428,21.7333],[72.7355,21.4749],[72.7508,21.0624],[72.8548,20.7504],[72.8869,20.4617],[72.8288,20.3682],[72.7753,20.1317]]]},"properties":{"code":"GJ","name":"Gujarat","st_nm_source":"Gujarat"}},{"type":"Feature","geometry":{"type":"Polygon","coordinates":[[[81.3968,17.818],[81.9795,18.0132],[82.3189,18.0449],[82.4275,18.4862],[82.7731,18.3418],[83.0774,18.4037],[82.9994,18.6085],[83.3481,19.0182],[83.7564,18.911],[83.7931,19.0182],[83.8909,18.8161],[84.3191,18.7886],[84.4231,18.9494],[84.7014,19.1185],[85.1724,19.4677],[85.6786,19.7454],[86.3698,19.9819],[86.7765,20.3352],[86.8056,20.7353],[86.9768,20.8604],[86.8591,21.2137],[87.1481,21.5092],[87.4845,21.6151],[87.4417,21.7677],[87.2429,21.9643],[87.1007,21.8639],[86.7276,22.2159],[86.067,22.5568],[85.963,22.4853],[86.0089,22.1155],[85.6832,22.0578],[85.2382,22.0096],[85.0287,22.1224],[85.0699,22.4908],[84.4292,22.352],[84.0118,22.5279],[83.8023,22.2942],[83.5377,22.0454],[83.5912,21.8254],[83.4872,21.644],[83.2686,21.3773],[83.1921,21.1394],[82.6385,21.0886],[82.3388,20.8741],[82.4382,20.4342],[82.3985,20.0561],[82.7181,19.9888],[82.5942,19.7757],[82.0177,20.0493],[81.8755,20.052],[82.0651,19.7908],[82.0284,19.5076],[82.2058,19.1213],[82.0911,18.7377],[81.8999,18.6607],[81.5299,18.2401],[81.3968,17.818]]]},"properties":{"code":"OR","name":"Odisha","st_nm_source":"Odisha"}},{"type":"Feature","geometry":{"type":"Polygon","coordinates":[[[80.2683,13.5645],[80.1307,14.2285],[80.1964,14.586],[80.0405,15.0094],[80.123,15.3682],[80.4182,15.7985],[80.831,15.7064],[81.0084,15.7545],[81.2133,16.2082],[81.5528,16.347],[81.7149,16.3113],[82.3144,16.5587],[82.3189,17.0578],[82.5422,17.2489],[83.1615,17.5596],[83.5194,17.95],[83.6631,18.0792],[84.128,18.3129],[84.7014,19.1185],[84.4231,18.9494],[84.3191,18.7886],[83.8909,18.8161],[83.7931,19.0182],[83.7564,18.911],[83.3481,19.0182],[82.9994,18.6085],[83.0774,18.4037],[82.7731,18.3418],[82.4275,18.4862],[82.3189,18.0449],[81.9795,18.0132],[81.3968,17.818],[81.0849,17.7974],[80.9106,17.6379],[81.3097,17.4097],[80.9411,17.2186],[80.8769,17.0702],[80.0557,16.9712],[80.0726,16.8172],[79.6796,16.6935],[79.2575,16.5656],[79.2101,16.3567],[79.2147,16.2261],[78.9226,16.123],[78.2559,16.0088],[78.2482,15.9717],[78.0831,15.8411],[77.5142,15.9277],[77.0264,15.837],[77.1564,15.14],[76.7603,14.9888],[76.7649,14.6025],[77.005,14.2354],[77.0035,14.1983],[76.9484,14.0952],[77.4561,13.6828],[77.9699,13.9591],[78.1259,13.7872],[78.1963,13.5687],[78.5862,13.2758],[78.2314,12.7603],[78.4119,12.627],[78.603,12.8442],[78.6214,12.9913],[79.2285,13.1576],[79.2835,13.1232],[79.9456,13.3638],[80.0374,13.5384],[80.2683,13.5645]]]},"properties":{"code":"AP","name":"Andhra Pradesh","st_nm_source":"Andhra Pradesh"}},{"type":"Feature","geometry":{"type":"Polygon","coordinates":[[[78.2314,12.7603],[78.5862,13.2758],[78.1963,13.5687],[78.1259,13.7872],[77.9699,13.9591],[77.4561,13.6828],[76.9484,14.0952],[77.0035,14.1983],[77.005,14.2354],[76.7649,14.6025],[76.7603,14.9888],[77.1564,15.14],[77.0264,15.837],[77.5142,15.9277],[77.5938,16.3429],[77.2879,16.4089],[77.4592,16.8846],[77.4668,16.9547],[77.3797,17.2228],[77.6855,17.5115],[77.4439,17.5843],[77.6564,17.9692],[77.6014,18.2758],[77.5509,18.2923],[77.265,18.4229],[76.9194,17.9156],[76.7405,17.8991],[76.6854,17.6819],[76.4285,17.6434],[76.3826,17.3149],[76.0753,17.3369],[75.6043,17.3052],[75.6654,16.9794],[75.3413,16.9561],[75.0889,16.9519],[74.6959,16.7155],[74.3152,16.5546],[74.4803,16.2494],[74.2097,15.7806],[74.1179,15.6514],[74.2785,15.5222],[74.2509,15.4919],[74.2968,15.041],[74.0858,14.9008],[74.2632,14.7193],[74.5828,13.9261],[74.777,13.071],[74.8687,12.7589],[75.4162,12.4991],[75.4147,12.2901],[75.9361,11.9409],[76.1135,11.9794],[76.4132,11.7581],[76.4178,11.6715],[76.8475,11.5945],[76.9087,11.7952],[77.6763,11.9519],[77.7467,12.1554],[77.4714,12.2434],[77.6014,12.6682],[77.8308,12.8662],[77.8659,12.8703],[78.2314,12.7603]]]},"properties":{"code":"KA","name":"Karnataka","st_nm_source":"Karnataka"}},{"type":"Feature","geometry":{"type":"Polygon","coordinates":[[[74.1179,15.6514],[73.6851,15.7284],[73.9344,15.4328],[74.0858,14.9008],[74.2968,15.041],[74.2509,15.4919],[74.2785,15.5222],[74.1179,15.6514]]]},"properties":{"code":"GA","name":"Goa","st_nm_source":"Goa"}},{"type":"Feature","geometry":{"type":"Polygon","coordinates":[[[76.4178,11.6715],[76.4132,11.7581],[76.1135,11.9794],[75.9361,11.9409],[75.4147,12.2901],[75.4162,12.4991],[74.8687,12.7589],[75.1654,12.0894],[75.5538,11.7017],[75.826,11.123],[75.9575,10.6858],[76.2144,10.1936],[76.2802,9.7895],[76.479,9.1227],[76.6824,8.7763],[77.0983,8.2924],[77.2696,8.5783],[77.1992,8.7708],[77.2558,8.8794],[77.2038,9.0705],[77.2818,9.2987],[77.3399,9.4196],[77.4026,9.5255],[77.1671,9.6121],[77.268,10.1221],[77.2879,10.2321],[77.0906,10.3146],[77.0509,10.2624],[76.8919,10.2596],[76.8337,10.3394],[76.9071,10.782],[76.6564,10.9388],[76.7068,11.2398],[76.4423,11.2013],[76.2343,11.5271],[76.4178,11.6715]]]},"properties":{"code":"KL","name":"Kerala","st_nm_source":"Kerala"}},{"type":"Feature","geometry":{"type":"Polygon","coordinates":[[[77.5509,18.2923],[77.6014,18.2758],[77.6564,17.9692],[77.4439,17.5843],[77.6855,17.5115],[77.3797,17.2228],[77.4668,16.9547],[77.4592,16.8846],[77.2879,16.4089],[77.5938,16.3429],[77.5142,15.9277],[78.0831,15.8411],[78.2482,15.9717],[78.2559,16.0088],[78.9226,16.123],[79.2147,16.2261],[79.2101,16.3567],[79.2575,16.5656],[79.6796,16.6935],[80.0726,16.8172],[80.0557,16.9712],[80.8769,17.0702],[80.9411,17.2186],[81.3097,17.4097],[80.9106,17.6379],[81.0849,17.7974],[80.9794,18.1658],[80.7561,18.17],[80.7056,18.4394],[80.3723,18.6113],[80.2759,18.7199],[79.9135,18.8257],[79.9288,19.1584],[79.8065,19.5791],[79.4716,19.5007],[78.9364,19.5502],[78.8416,19.7619],[78.3064,19.9118],[78.1932,19.3165],[77.8629,19.3041],[77.9485,18.8436],[77.739,18.5563],[77.5509,18.2923]]]},"properties":{"code":"TG","name":"Telangana","st_nm_source":"Telangana"}},{"type":"Feature","geometry":{"type":"Polygon","coordinates":[[[89.055,22.1279],[88.8577,22.9679],[88.7094,23.2318],[88.5932,23.6167],[88.7002,24.0965],[88.7415,24.2546],[88.1329,24.5103],[88.0274,24.6904],[88.3944,24.9695],[88.4357,25.2005],[88.9097,25.1798],[88.8119,25.5235],[88.4464,25.595],[88.0932,25.9304],[88.3516,26.2219],[88.3332,26.4968],[88.4005,26.6439],[88.7599,26.3291],[89.3486,26.0102],[89.7294,26.171],[89.8425,26.3827],[89.8349,26.4144],[89.8517,26.6976],[89.0902,26.8405],[88.8685,26.9656],[88.7216,27.1389],[88.532,27.176],[88.425,27.0715],[88.2812,27.132],[88.0381,27.22],[88.1864,26.7718],[88.11,26.5477],[88.24,26.4584],[87.85,26.0391],[87.8271,25.8906],[88.0672,25.4837],[87.7109,25.2582],[87.8913,24.8554],[87.8393,24.7454],[87.8898,24.5653],[87.639,24.2546],[87.2337,24.025],[87.0854,23.812],[86.801,23.8339],[86.801,23.6992],[86.486,23.636],[86.3101,23.4119],[85.885,23.4834],[85.859,23.4298],[85.885,23.1672],[86.2413,22.9967],[86.5594,22.7135],[86.8453,22.4001],[86.7276,22.2159],[87.1007,21.8639],[87.2429,21.9643],[87.4417,21.7677],[87.4845,21.6151],[87.7888,21.699],[88.1864,22.1045],[87.9983,22.2447],[88.0824,22.2612],[88.4449,21.9175],[89.0688,21.9492],[89.055,22.1279]]]},"properties":{"code":"WB","name":"West Bengal","st_nm_source":"West Bengal"}},{"type":"Feature","geometry":{"type":"Polygon","coordinates":[[[72.9618,20.2087],[73.2111,20.1207],[73.0429,20.3256],[72.9618,20.2087]]]},"properties":{"code":"DH","name":"Dadra and Nagar Haveli and Daman and Diu","st_nm_source":"Dadra and Nagar Haveli and Daman and Diu"}},{"type":"Feature","geometry":{"type":"MultiPolygon","coordinates":[[[[79.8493,10.8274],[79.8508,10.9855],[79.7484,10.9965],[79.7239,10.9291],[79.8493,10.8274]]],[[[79.808,11.8447],[79.8401,11.9561],[79.6857,11.8805],[79.808,11.8447]]]]},"properties":{"code":"PY","name":"Puducherry","st_nm_source":"Puducherry"}},{"type":"Feature","geometry":{"type":"Polygon","coordinates":[[[73.0536,8.2731],[73.0184,8.2759],[73.0429,8.2635],[73.0536,8.2731]]]},"properties":{"code":"LD","name":"Lakshadweep","st_nm_source":"Lakshadweep"}},{"type":"Feature","geometry":{"type":"Polygon","coordinates":[[[93.2236,28.3418],[92.8015,28.2015],[92.7342,27.9761],[92.4682,27.8152],[91.881,27.7218],[92.014,27.4894],[92.1134,26.8928],[92.3596,26.9258],[92.6562,27.0083],[93.0615,26.9216],[93.3979,26.9574],[93.6976,26.9945],[94.2191,27.5045],[94.2665,27.5197],[94.213,27.6063],[94.4622,27.5554],[95.1366,27.8152],[95.5143,27.8799],[95.5189,27.884],[95.97,27.9596],[95.7743,27.7328],[95.8737,27.5444],[95.6336,27.231],[95.4837,27.242],[95.3767,27.0962],[95.369,27.11],[95.1962,27.0344],[95.2345,26.6824],[95.496,26.8172],[95.684,26.9038],[96.022,27.1801],[96.6061,27.3657],[96.8615,27.631],[97.253,27.9005],[97.3707,28.218],[96.6627,28.46],[96.3141,28.383],[96.3263,28.5109],[96.5847,28.7171],[96.519,28.9673],[96.0893,29.4594],[95.2696,29.0498],[94.6794,29.3275],[94.187,29.0388],[93.9622,28.713],[93.3398,28.6401],[93.2236,28.3418]]]},"properties":{"code":"AR","name":"Arunachal Pradesh","st_nm_source":"Arunachal Pradesh"}},{"type":"Feature","geometry":{"type":"Polygon","coordinates":[[[93.0095,24.4127],[93.0875,24.5722],[93.1746,24.7977],[93.2465,24.9722],[93.4698,25.3063],[93.3291,25.5428],[93.5126,25.6747],[93.7756,25.9689],[93.9545,25.9689],[94.164,26.3511],[94.3139,26.4611],[94.5861,26.7251],[94.7359,26.7498],[94.791,26.7965],[94.924,26.9491],[95.1962,27.0344],[95.369,27.11],[95.3767,27.0962],[95.4837,27.242],[95.6336,27.231],[95.8737,27.5444],[95.7743,27.7328],[95.97,27.9596],[95.5189,27.884],[95.5143,27.8799],[95.1366,27.8152],[94.4622,27.5554],[94.213,27.6063],[94.2665,27.5197],[94.2191,27.5045],[93.6976,26.9945],[93.3979,26.9574],[93.0615,26.9216],[92.6562,27.0083],[92.3596,26.9258],[92.1134,26.8928],[91.7036,26.813],[90.9512,26.7773],[90.3365,26.8625],[89.8517,26.6976],[89.8349,26.4144],[89.8425,26.3827],[89.7294,26.171],[89.8425,25.8823],[89.8716,25.4768],[90.0199,25.6074],[90.1224,25.9593],[90.4343,25.9909],[91.0261,25.8865],[91.0078,25.8246],[91.335,25.8411],[91.7234,26.0349],[92.173,26.0762],[92.274,26.0652],[92.1516,25.672],[92.6608,25.5716],[92.5691,25.4658],[92.54,25.0987],[92.4253,25.03],[92.5156,24.8801],[92.2143,24.509],[92.2954,24.245],[92.4223,24.2505],[92.5324,24.1776],[92.7618,24.5131],[92.8963,24.3907],[93.0095,24.4127]]]},"properties":{"code":"AS","name":"Assam","st_nm_source":"Assam"}},{"type":"Feature","geometry":{"type":"Polygon","coordinates":[[[93.4698,25.3063],[93.8047,25.463],[93.9362,25.5593],[94.19,25.5483],[94.4882,25.6046],[94.6748,25.4452],[94.8827,25.5868],[95.0143,25.8906],[95.1228,26.3484],[95.2345,26.6824],[95.1962,27.0344],[94.924,26.9491],[94.791,26.7965],[94.7359,26.7498],[94.5861,26.7251],[94.3139,26.4611],[94.164,26.3511],[93.9545,25.9689],[93.7756,25.9689],[93.5126,25.6747],[93.3291,25.5428],[93.4698,25.3063]]]},"properties":{"code":"NL","name":"Nagaland","st_nm_source":"Nagaland"}},{"type":"Feature","geometry":{"type":"Polygon","coordinates":[[[89.8716,25.4768],[89.9741,25.2994],[90.234,25.2032],[90.9696,25.173],[91.3549,25.2334],[92.017,25.1895],[92.199,25.1248],[92.4253,25.03],[92.54,25.0987],[92.5691,25.4658],[92.6608,25.5716],[92.1516,25.672],[92.274,26.0652],[92.173,26.0762],[91.7234,26.0349],[91.335,25.8411],[91.0078,25.8246],[91.0261,25.8865],[90.4343,25.9909],[90.1224,25.9593],[90.0199,25.6074],[89.8716,25.4768]]]},"properties":{"code":"ML","name":"Meghalaya","st_nm_source":"Meghalaya"}},{"type":"Feature","geometry":{"type":"Polygon","coordinates":[[[93.2526,24.0209],[93.378,24.0883],[93.7404,24.0058],[94.1564,23.8477],[94.2527,24.1144],[94.3751,24.4938],[94.6289,24.7564],[94.6534,25.1152],[94.6748,25.4452],[94.4882,25.6046],[94.19,25.5483],[93.9362,25.5593],[93.8047,25.463],[93.4698,25.3063],[93.2465,24.9722],[93.1746,24.7977],[93.0875,24.5722],[93.0095,24.4127],[93.2068,24.047],[93.2526,24.0209]]]},"properties":{"code":"MN","name":"Manipur","st_nm_source":"Manipur"}},{"type":"Feature","geometry":{"type":"Polygon","coordinates":[[[92.2954,24.245],[92.2143,24.509],[92.0706,24.377],[91.9238,24.1089],[91.7556,24.1419],[91.4696,24.0622],[91.2265,23.7322],[91.3197,23.2772],[91.543,22.9995],[91.7586,23.2662],[91.8045,23.515],[92.1761,23.7075],[92.2648,23.7267],[92.2954,24.245]]]},"properties":{"code":"TR","name":"Tripura","st_nm_source":"Tripura"}},{"type":"Feature","geometry":{"type":"Polygon","coordinates":[[[92.8734,12.3314],[92.9743,12.5431],[92.8413,13.3913],[92.6991,12.3286],[92.8734,12.3314]]]},"properties":{"code":"AN","name":"Andaman and Nicobar Islands","st_nm_source":"Andaman and Nicobar Islands"}},{"type":"Feature","geometry":{"type":"Polygon","coordinates":[[[77.3476,28.5205],[77.5005,28.2057],[77.476,28.0847],[77.5295,27.9266],[77.3445,27.8496],[77.2833,27.7987],[77.3399,27.5265],[77.6457,27.242],[77.4546,26.7429],[77.7604,26.9326],[78.2222,26.8323],[78.5449,26.7636],[78.7804,26.769],[79.1352,26.4405],[78.9379,25.9524],[78.8859,25.9126],[78.6581,25.5593],[78.4516,25.5716],[78.3905,25.206],[78.447,25.1221],[78.3736,25.0987],[78.1901,24.8416],[78.2681,24.4498],[78.8064,24.179],[78.9914,24.4168],[78.9853,24.4416],[78.6397,25.0712],[78.5587,25.2128],[78.8798,25.1578],[79.3233,25.1496],[79.2804,25.3242],[79.6734,25.1207],[80.1047,25.3503],[80.2637,25.0245],[80.4778,24.9764],[80.7148,25.0657],[81.1201,24.9035],[81.5406,25.1881],[82.0941,24.8169],[82.2975,24.6066],[82.5239,24.6767],[82.7976,24.5763],[82.8129,23.9618],[83.2074,23.9219],[83.3297,24.102],[83.5025,24.5255],[83.5239,24.5502],[83.3955,24.7812],[83.3496,25.184],[83.5377,25.3091],[83.7793,25.3984],[83.9307,25.5579],[84.3191,25.6679],[84.6005,25.7325],[84.472,25.8823],[84.0561,26.0995],[84.157,26.3759],[84.0515,26.5518],[84.4185,26.6316],[84.0607,26.8873],[83.9078,27.275],[83.8619,27.3354],[83.3955,27.4798],[83.2915,27.3354],[82.7318,27.4867],[82.2073,27.8441],[81.7424,27.9527],[81.0528,28.405],[80.5527,28.691],[80.3142,28.6291],[80.0649,28.8367],[79.6826,28.8546],[79.4227,28.8972],[78.9746,29.1309],[78.7605,29.2642],[78.8507,29.3481],[78.9257,29.4388],[78.3354,29.7976],[78.0204,29.5818],[77.8201,29.6739],[77.7161,29.8856],[77.9592,30.2417],[77.5754,30.4012],[77.58,30.3792],[77.2267,29.9392],[77.1518,29.6877],[77.1319,29.4842],[77.1549,29.2972],[77.1426,29.1666],[77.216,28.8532],[77.2222,28.8312],[77.3414,28.6098],[77.3476,28.5205]]]},"properties":{"code":"UP","name":"Uttar Pradesh","st_nm_source":"Uttar Pradesh"}},{"type":"Feature","geometry":{"type":"Polygon","coordinates":[[[75.4743,28.926],[75.5278,28.9714],[75.3458,29.2835],[75.2403,29.2601],[74.6027,29.3646],[74.5262,29.9406],[74.4482,29.9475],[74.2984,29.9544],[73.968,30.1936],[73.3977,29.9461],[73.283,29.5722],[72.945,29.0278],[72.6621,28.893],[72.2997,28.669],[71.8807,27.9142],[70.7583,27.7218],[70.3714,28.0118],[70.0258,27.5623],[69.5869,27.1842],[69.5105,26.7429],[70.1741,26.5518],[70.1405,26.1559],[70.2689,25.7132],[70.6742,25.6761],[70.665,25.397],[71.1115,24.6753],[71.188,24.6506],[71.2874,24.6162],[72.0581,24.7124],[72.3349,24.6327],[72.9588,24.3605],[73.0016,24.4801],[73.0674,24.1941],[73.3778,23.9041],[73.3686,23.8147],[73.627,23.449],[73.9589,23.3803],[73.9818,23.3377],[74.3198,23.06],[74.7342,23.2208],[74.7724,23.5425],[74.9406,23.7652],[74.9085,24.212],[74.6975,24.4828],[74.9926,24.6932],[75.1914,25.0369],[75.352,25.019],[75.5492,24.7028],[75.7847,24.7619],[75.9208,24.5433],[75.7281,24.3962],[75.8367,24.0567],[75.4621,23.9178],[75.6899,23.7473],[76.2129,24.2093],[76.8811,24.1309],[76.8444,24.4361],[77.0692,24.5571],[76.8766,25.041],[77.3124,25.0809],[77.083,25.3366],[76.5937,25.408],[76.5463,25.8383],[76.8521,26.0322],[77.1197,26.2136],[77.3751,26.3649],[78.2222,26.8323],[77.7604,26.9326],[77.4546,26.7429],[77.6457,27.242],[77.3399,27.5265],[77.2833,27.7987],[76.9775,27.6544],[76.8536,28.2208],[76.5432,28.0338],[76.3123,28.1782],[76.2251,27.8331],[76.0768,27.8414],[75.9331,27.928],[75.8933,28.3899],[75.67,28.5191],[75.4743,28.926]]]},"properties":{"code":"RJ","name":"Rajasthan","st_nm_source":"Rajasthan"}},{"type":"Feature","geometry":{"type":"Polygon","coordinates":[[[77.216,28.8532],[76.9423,28.7982],[76.8842,28.5026],[77.1748,28.405],[77.3476,28.5205],[77.3414,28.6098],[77.2222,28.8312],[77.216,28.8532]]]},"properties":{"code":"DL","name":"Delhi","st_nm_source":"Delhi"}},{"type":"Feature","geometry":{"type":"Polygon","coordinates":[[[77.2833,27.7987],[77.3445,27.8496],[77.5295,27.9266],[77.476,28.0847],[77.5005,28.2057],[77.3476,28.5205],[77.1748,28.405],[76.8842,28.5026],[76.9423,28.7982],[77.216,28.8532],[77.1426,29.1666],[77.1549,29.2972],[77.1319,29.4842],[77.1518,29.6877],[77.2267,29.9392],[77.58,30.3792],[77.2084,30.4878],[77.1228,30.5634],[77.0249,30.749],[76.7772,30.9043],[76.8383,30.7545],[76.8276,30.6816],[76.9071,30.4589],[76.7481,30.4286],[76.6426,30.1496],[76.4667,30.0987],[76.2144,29.8403],[76.0982,29.81],[75.9468,29.7289],[75.7205,29.8141],[75.303,29.5598],[75.1914,29.8444],[74.7051,29.975],[74.5262,29.9406],[74.6027,29.3646],[75.2403,29.2601],[75.3458,29.2835],[75.5278,28.9714],[75.4743,28.926],[75.67,28.5191],[75.8933,28.3899],[75.9331,27.928],[76.0768,27.8414],[76.2251,27.8331],[76.3123,28.1782],[76.5432,28.0338],[76.8536,28.2208],[76.9775,27.6544],[77.2833,27.7987]]]},"properties":{"code":"HR","name":"Haryana","st_nm_source":"Haryana"}},{"type":"Feature","geometry":{"type":"Polygon","coordinates":[[[88.1146,27.6186],[88.0381,27.22],[88.2812,27.132],[88.425,27.0715],[88.532,27.176],[88.7216,27.1389],[88.7935,27.4166],[88.844,27.9926],[88.6192,28.0984],[88.2048,27.9417],[88.1146,27.6186]]]},"properties":{"code":"SK","name":"Sikkim","st_nm_source":"Sikkim"}},{"type":"Feature","geometry":{"type":"Polygon","coordinates":[[[83.5025,24.5255],[83.8726,24.5323],[84.0087,24.6423],[84.3268,24.4897],[84.4965,24.2876],[84.8023,24.5309],[85.0883,24.3701],[85.3314,24.5103],[85.3743,24.5543],[85.9018,24.766],[86.0547,24.7798],[86.4523,24.3729],[86.6114,24.6079],[86.9126,24.5474],[87.0518,24.6272],[87.1756,25.0575],[87.4784,25.195],[87.5518,25.3311],[87.7109,25.2582],[88.0672,25.4837],[87.8271,25.8906],[87.85,26.0391],[88.24,26.4584],[88.11,26.5477],[87.6589,26.38],[87.1619,26.4047],[87.0426,26.5601],[86.723,26.4254],[86.0287,26.6659],[85.8162,26.6],[85.729,26.8089],[85.255,26.7539],[84.758,27.0028],[84.6204,27.3396],[84.0974,27.5169],[83.8619,27.3354],[83.9078,27.275],[84.0607,26.8873],[84.4185,26.6316],[84.0515,26.5518],[84.157,26.3759],[84.0561,26.0995],[84.472,25.8823],[84.6005,25.7325],[84.3191,25.6679],[83.9307,25.5579],[83.7793,25.3984],[83.5377,25.3091],[83.3496,25.184],[83.3955,24.7812],[83.5239,24.5502],[83.5025,24.5255]]]},"properties":{"code":"BR","name":"Bihar","st_nm_source":"Bihar"}},{"type":"Feature","geometry":{"type":"Polygon","coordinates":[[[86.7276,22.2159],[86.8453,22.4001],[86.5594,22.7135],[86.2413,22.9967],[85.885,23.1672],[85.859,23.4298],[85.885,23.4834],[86.3101,23.4119],[86.486,23.636],[86.801,23.6992],[86.801,23.8339],[87.0854,23.812],[87.2337,24.025],[87.639,24.2546],[87.8898,24.5653],[87.8393,24.7454],[87.8913,24.8554],[87.7109,25.2582],[87.5518,25.3311],[87.4784,25.195],[87.1756,25.0575],[87.0518,24.6272],[86.9126,24.5474],[86.6114,24.6079],[86.4523,24.3729],[86.0547,24.7798],[85.9018,24.766],[85.3743,24.5543],[85.3314,24.5103],[85.0883,24.3701],[84.8023,24.5309],[84.4965,24.2876],[84.3268,24.4897],[84.0087,24.6423],[83.8726,24.5323],[83.5025,24.5255],[83.3297,24.102],[84.0163,23.6346],[84.0744,23.3335],[84.0377,23.1713],[84.2931,22.7726],[84.0118,22.5279],[84.4292,22.352],[85.0699,22.4908],[85.0287,22.1224],[85.2382,22.0096],[85.6832,22.0578],[86.0089,22.1155],[85.963,22.4853],[86.067,22.5568],[86.7276,22.2159]]]},"properties":{"code":"JH","name":"Jharkhand","st_nm_source":"Jharkhand"}},{"type":"Feature","geometry":{"type":"Polygon","coordinates":[[[78.3981,32.5251],[78.7605,32.6544],[79.1138,32.3835],[79.626,32.7396],[79.3753,33.0847],[78.9884,33.3335],[79.1061,33.6167],[78.9043,33.9755],[79.3538,34.036],[79.5068,34.4745],[80.068,34.7138],[80.2897,35.6073],[79.2147,35.9785],[78.6642,35.8576],[77.6121,35.4685],[77.4301,35.6541],[76.9347,35.7833],[76.8001,36.0473],[76.3505,36.3593],[75.748,36.5875],[75.3428,37.0522],[74.9207,36.9051],[74.7082,37.077],[73.7004,36.6838],[73.1255,36.6865],[72.5948,36.2617],[72.5337,35.9167],[73.0888,35.8823],[73.4068,35.5634],[73.7845,35.5249],[73.7952,35.2444],[74.147,35.0973],[74.3198,34.7866],[74.6011,34.7371],[75.2388,34.6285],[75.3749,34.3879],[75.3841,34.3618],[75.4972,34.234],[75.5951,34.1982],[76.0217,33.9975],[76.7726,33.251],[77.2741,32.8743],[77.7406,32.9692],[78.0158,32.62],[78.3981,32.5251]]]},"properties":{"code":"LA","name":"Ladakh","st_nm_source":"Ladakh"}},{"type":"Feature","geometry":{"type":"Polygon","coordinates":[[[74.147,35.0973],[73.39,34.3742],[73.4879,34.1446],[73.598,33.7129],[73.6882,33.0874],[74.4467,32.7891],[74.8886,32.521],[75.2052,32.4179],[75.3413,32.3464],[75.8367,32.5114],[75.8015,32.8853],[76.2221,33.0214],[76.7481,33.1795],[76.7726,33.251],[76.0217,33.9975],[75.5951,34.1982],[75.4972,34.234],[75.3841,34.3618],[75.3749,34.3879],[75.2388,34.6285],[74.6011,34.7371],[74.3198,34.7866],[74.147,35.0973]]]},"properties":{"code":"JK","name":"Jammu and Kashmir","st_nm_source":"Jammu and Kashmir"}},{"type":"Feature","geometry":{"type":"Polygon","coordinates":[[[76.7726,33.251],[76.7481,33.1795],[76.2221,33.0214],[75.8015,32.8853],[75.8367,32.5114],[75.9315,32.3945],[75.6012,32.0935],[75.5982,32.0825],[75.9606,31.857],[76.2894,31.3071],[76.3918,31.413],[76.6457,31.2095],[76.7328,30.9373],[76.7772,30.9043],[77.0249,30.749],[77.1228,30.5634],[77.2084,30.4878],[77.58,30.3792],[77.5754,30.4012],[77.7039,30.7641],[77.8292,31.0294],[78.3109,31.2837],[78.8813,31.2837],[78.6734,32.0784],[78.3981,32.5251],[78.0158,32.62],[77.7406,32.9692],[77.2741,32.8743],[76.7726,33.251]]]},"properties":{"code":"HP","name":"Himachal Pradesh","st_nm_source":"Himachal Pradesh"}},{"type":"Feature","geometry":{"type":"Polygon","coordinates":[[[75.8367,32.5114],[75.3413,32.3464],[75.3795,32.1828],[74.9131,32.044],[74.5033,31.7402],[74.6118,31.4996],[74.7082,31.072],[74.2158,30.6912],[73.8794,30.3599],[73.968,30.1936],[74.2984,29.9544],[74.4482,29.9475],[74.5262,29.9406],[74.7051,29.975],[75.1914,29.8444],[75.303,29.5598],[75.7205,29.8141],[75.9468,29.7289],[76.0982,29.81],[76.2144,29.8403],[76.4667,30.0987],[76.6426,30.1496],[76.7481,30.4286],[76.9071,30.4589],[76.8276,30.6816],[76.7389,30.6926],[76.7099,30.7613],[76.8383,30.7545],[76.7772,30.9043],[76.7328,30.9373],[76.6457,31.2095],[76.3918,31.413],[76.2894,31.3071],[75.9606,31.857],[75.5982,32.0825],[75.6012,32.0935],[75.9315,32.3945],[75.8367,32.5114]]]},"properties":{"code":"PB","name":"Punjab","st_nm_source":"Punjab"}},{"type":"Feature","geometry":{"type":"Polygon","coordinates":[[[80.0649,28.8367],[80.0741,28.9412],[80.2423,29.4443],[80.3662,29.7399],[80.9289,30.1743],[80.6078,30.4713],[80.2132,30.584],[80.1016,30.7888],[79.4074,31.0734],[79.0725,31.4556],[78.8813,31.2837],[78.3109,31.2837],[77.8292,31.0294],[77.7039,30.7641],[77.5754,30.4012],[77.9592,30.2417],[77.7161,29.8856],[77.8201,29.6739],[78.0204,29.5818],[78.3354,29.7976],[78.9257,29.4388],[78.8507,29.3481],[78.7605,29.2642],[78.9746,29.1309],[79.4227,28.8972],[79.6826,28.8546],[80.0649,28.8367]]]},"properties":{"code":"UT","name":"Uttarakhand","st_nm_source":"Uttarakhand"}},{"type":"Feature","geometry":{"type":"Polygon","coordinates":[[[76.8276,30.6816],[76.8383,30.7545],[76.7099,30.7613],[76.7389,30.6926],[76.8276,30.6816]]]},"properties":{"code":"CH","name":"Chandigarh","st_nm_source":"Chandigarh"}}]}